NORAD_CAT_ID,OBJECT_NAME,OBJECT_TYPE,EPOCH,MEAN_MOTION,ECCENTRICITY,INCLINATION,RA_OF_ASC_NODE,ARG_OF_PERICENTER,MEAN_ANOMALY,BSTAR,MEAN_MOTION_DOT,MEAN_MOTION_DDOT,TLE_LINE0,TLE_LINE1,TLE_LINE2,SEMIMAJOR_AXIS,PERIOD,APOGEE,PERIGEE,DECAYED
55944.0,STARLINK-5926,PAYLOAD,2023-11-04 05:27:12,14.98332537,0.0003002,69.9991,283.7674,269.2146,90.8669,2.586e-05,2.16e-06,0.0,0 STARLINK-5926,1 55944U 23037AG  23308.22722832  .00000216  00000-0  25860-4 0  9990,2 55944  69.9991 283.7674 0003002 269.2146  90.8669 14.98332537 36039,6950.185,96.107,574.136,569.964,0.0
55944.0,STARLINK-5926,PAYLOAD,2023-11-04 08:39:28,14.98332865,0.0002766,69.9995,283.4305,264.6212,95.4631,5.6366e-05,5.8e-06,0.0,0 STARLINK-5926,1 55944U 23037AG  23308.36074710  .00000580  00000-0  56366-4 0  9999,2 55944  69.9995 283.4305 0002766 264.6212  95.4631 14.98332865 35718,6950.184,96.107,573.971,570.127,0.0
55944.0,STARLINK-5926,PAYLOAD,2023-11-05 08:41:29,14.98332895,0.0002411,70.0004,280.9059,262.5604,97.5281,4.1567e-05,4.03e-06,0.0,0 STARLINK-5926,1 55944U 23037AG  23309.36214718  .00000403  00000-0  41567-4 0  9995,2 55944  70.0004 280.9059 0002411 262.5604  97.5281 14.98332895 36201,6950.184,96.107,573.725,570.373,0.0
55944.0,STARLINK-5926,PAYLOAD,2023-11-05 15:06:01,14.98337083,0.000259,70.0004,280.2318,268.7283,91.358,-6.4756e-05,-8.66e-06,0.0,0 STARLINK-5926,1 55944U 23037AG  23309.62918614 -.00000866  00000-0 -64756-4 0  9990,2 55944  70.0004 280.2318 0002590 268.7283  91.3580 14.98337083 35905,6950.171,96.107,573.836,570.236,0.0
55944.0,STARLINK-5926,PAYLOAD,2023-11-06 03:55:05,14.98339557,0.0002738,70.0001,278.8868,262.4798,97.605,0.00014323,1.617e-05,0.0,0 STARLINK-5926,1 55944U 23037AG  23310.16325676  .00001617  00000-0  14323-3 0  9998,2 55944  70.0001 278.8868 0002738 262.4798  97.6050 14.98339557 36327,6950.163,96.106,573.931,570.125,0.0
55944.0,STARLINK-5926,PAYLOAD,2023-11-06 07:07:21,14.98345563,0.0002508,69.9999,278.5493,259.6677,100.4199,0.0001735,1.979e-05,0.0,0 STARLINK-5926,1 55944U 23037AG  23310.29677089  .00001979  00000-0  17350-3 0  9994,2 55944  69.9999 278.5493 0002508 259.6677 100.4199 14.98345563 36343,6950.145,96.106,573.753,570.267,0.0
55944.0,STARLINK-5926,PAYLOAD,2023-11-06 15:08:02,14.98326864,0.0002328,70.0003,277.7083,276.5327,83.5567,-4.4867e-05,-6.28e-06,0.0,0 STARLINK-5926,1 55944U 23037AG  23310.63058894 -.00000628  00000-0 -44867-4 0  9995,2 55944  70.0003 277.7083 0002328 276.5327  83.5567 14.98326864 36396,6950.203,96.107,573.686,570.45,0.0
55944.0,STARLINK-5926,PAYLOAD,2023-11-07 03:57:09,14.98303633,0.0002635,69.9997,276.3621,267.7676,92.3181,-0.00031863,-3.89e-05,0.0,0 STARLINK-5926,1 55944U 23037AG  23311.16469533 -.00003890  00000-0 -31863-3 0  9995,2 55944  69.9997 276.3621 0002635 267.7676  92.3181 14.98303633 36476,6950.274,96.109,573.971,570.308,0.0
55944.0,STARLINK-5926,PAYLOAD,2023-11-07 08:45:33,14.98305244,0.0002522,70.0,275.8567,268.2761,91.8109,-0.00027453,-3.365e-05,0.0,0 STARLINK-5926,1 55944U 23037AG  23311.36497623 -.00003365  00000-0 -27453-3 0  9995,2 55944  70.0000 275.8567 0002522 268.2761  91.8109 14.98305244 36163,6950.269,96.109,573.887,570.382,0.0
55944.0,STARLINK-5926,PAYLOAD,2023-11-07 15:10:05,14.98316899,0.0002869,69.9995,275.1836,270.0778,90.0052,-0.00019233,-2.386e-05,0.0,0 STARLINK-5926,1 55944U 23037AG  23311.63200875 -.00002386  00000-0 -19233-3 0  9995,2 55944  69.9995 275.1836 0002869 270.0778  90.0052 14.98316899 36546,6950.233,96.108,574.092,570.104,0.0
55944.0,STARLINK-5926,PAYLOAD,2023-11-08 03:59:09,14.98332476,0.0002717,69.9996,273.8372,272.6553,87.4295,-0.00011044,-1.411e-05,0.0,0 STARLINK-5926,1 55944U 23037AG  23312.16608086 -.00001411  00000-0 -11044-3 0  9990,2 55944  69.9996 273.8372 0002717 272.6553  87.4295 14.98332476 36625,6950.185,96.107,573.939,570.162,0.0
55944.0,STARLINK-5926,PAYLOAD,2023-11-08 07:11:25,14.98334091,0.0002696,69.9997,273.5006,273.428,86.657,-8.0774e-05,-1.057e-05,0.0,0 STARLINK-5926,1 55944U 23037AG  23312.29959934 -.00001057  00000-0 -80774-4 0  9998,2 55944  69.9997 273.5006 0002696 273.4280  86.6570 14.98334091 36306,6950.18,96.107,573.919,570.171,0.0
55944.0,STARLINK-5926,PAYLOAD,2023-11-08 15:12:05,14.9834111,0.0002793,69.9996,272.6587,273.3524,86.7315,-5.7895e-05,-7.84e-06,0.0,0 STARLINK-5926,1 55944U 23037AG  23312.63339353 -.00000784  00000-0 -57895-4 0  9997,2 55944  69.9996 272.6587 0002793 273.3524  86.7315 14.98341110 36697,6950.159,96.106,573.965,570.082,0.0
55944.0,STARLINK-5926,PAYLOAD,2023-11-08 21:36:37,14.98319182,0.000287,69.9994,271.9854,276.1356,83.9476,0.00042115,4.934e-05,0.0,0 STARLINK-5926,1 55944U 23037AG  23312.90043523  .00004934  00000-0  42115-3 0  9995,2 55944  69.9994 271.9854 0002870 276.1356  83.9476 14.98319182 36392,6950.226,96.108,574.086,570.097,0.0
55944.0,STARLINK-5926,PAYLOAD,2023-11-09 07:13:25,14.9833372,0.0002607,69.9997,270.9743,268.548,91.538,0.00049821,5.857e-05,0.0,0 STARLINK-5926,1 55944U 23037AG  23313.30098471  .00005857  00000-0  49821-3 0  9998,2 55944  69.9997 270.9743 0002607 268.5480  91.5380 14.98333720 36452,6950.181,96.107,573.858,570.234,0.0
55944.0,STARLINK-5926,PAYLOAD,2023-11-09 21:38:38,14.98334232,0.0002723,70.0006,269.4634,270.9397,89.145,0.00011504,1.28e-05,0.0,0 STARLINK-5926,1 55944U 23037AG  23313.90183384  .00001280  00000-0  11504-3 0  9995,2 55944  70.0006 269.4634 0002723 270.9397  89.1450 14.98334232 36541,6950.18,96.107,573.937,570.152,0.0
55944.0,STARLINK-5926,PAYLOAD,2023-11-10 04:03:10,14.98335942,0.0002447,70.0011,268.7902,253.1685,106.9206,0.00011417,1.27e-05,0.0,0 STARLINK-5926,1 55944U 23037AG  23314.16887070  .00001270  00000-0  11417-3 0  9999,2 55944  70.0011 268.7902 0002447 253.1685 106.9206 14.98335942 36921,6950.175,96.107,573.74,570.339,0.0
55944.0,STARLINK-5926,PAYLOAD,2023-11-10 07:15:26,14.98341606,0.0002679,69.9997,268.451,264.3287,95.7567,6.7523e-05,7.13e-06,0.0,0 STARLINK-5926,1 55944U 23037AG  23314.30238761  .00000713  00000-0  67523-4 0  9993,2 55944  69.9997 268.4510 0002679 264.3287  95.7567 14.98341606 36606,6950.157,96.106,573.884,570.16,0.0
55944.0,STARLINK-5926,PAYLOAD,2023-11-10 21:40:39,14.98341925,0.0002208,70.001,266.9375,260.8532,99.2377,-0.00013949,-1.757e-05,0.0,0 STARLINK-5926,1 55944U 23037AG  23314.90322972 -.00001757  00000-0 -13949-3 0  9990,2 55944  70.0010 266.9375 0002208 260.8532  99.2377 14.98341925 36690,6950.156,96.106,573.556,570.486,0.0
55944.0,STARLINK-5926,PAYLOAD,2023-11-11 04:05:11,14.98337851,0.0002387,70.0008,266.2643,254.0557,106.0339,-0.0001963,-2.435e-05,0.0,0 STARLINK-5926,1 55944U 23037AG  23315.17027147 -.00002435  00000-0 -19630-3 0  9993,2 55944  70.0008 266.2643 0002387 254.0557 106.0339 14.98337851 37079,6950.169,96.106,573.693,570.375,0.0
55944.0,STARLINK-5926,PAYLOAD,2023-11-11 07:17:27,14.98336998,0.0002459,70.0003,265.926,258.8517,101.2366,-0.00019453,-2.414e-05,0.0,0 STARLINK-5926,1 55944U 23037AG  23315.30379147 -.00002414  00000-0 -19453-3 0  9998,2 55944  70.0003 265.9260 0002459 258.8517 101.2366 14.98336998 36755,6950.171,96.107,573.745,570.327,0.0
55944.0,STARLINK-5926,PAYLOAD,2023-11-11 21:42:39,14.9833405,0.0002478,70.0003,264.4111,253.1563,106.9324,-5.4744e-05,-7.46e-06,0.0,0 STARLINK-5926,1 55944U 23037AG  23315.90462707 -.00000746  00000-0 -54744-4 0  9998,2 55944  70.0003 264.4111 0002478 253.1563 106.9324 14.98334050 36847,6950.18,96.107,573.768,570.323,0.0
55944.0,STARLINK-5926,PAYLOAD,2023-11-12 04:07:11,14.98333642,0.0002554,69.9999,263.7374,256.1255,103.962,-3.5451e-05,-5.16e-06,0.0,0 STARLINK-5926,1 55944U 23037AG  23316.17166623 -.00000516  00000-0 -35451-4 0  9995,2 55944  69.9999 263.7374 0002554 256.1255 103.9620 14.98333642 37222,6950.182,96.107,573.822,570.272,0.0
55944.0,STARLINK-5926,PAYLOAD,2023-11-12 13:44:00,14.98335344,0.0002441,70.0001,262.7269,281.3485,78.7399,-0.00010417,-1.336e-05,0.0,0 STARLINK-5926,1 55944U 23037AG  23316.57222791 -.00001336  00000-0 -10417-3 0  9993,2 55944  70.0001 262.7269 0002441 281.3485  78.7399 14.98335344 36942,6950.176,96.107,573.738,570.345,0.0
55944.0,STARLINK-5926,PAYLOAD,2023-11-12 21:44:41,14.98324255,0.0002435,70.0002,261.8877,260.5192,99.5692,-8.7205e-06,-1.97e-06,0.0,0 STARLINK-5926,1 55944U 23037AG  23316.90603287 -.00000197  00000-0 -87205-5 0  9998,2 55944  70.0002 261.8877 0002435 260.5192  99.5692 14.98324255 36996,6950.211,96.107,573.768,570.383,0.0
55944.0,STARLINK-5926,PAYLOAD,2023-11-13 02:33:05,14.98321965,0.0002496,70.0001,261.3821,261.876,98.2116,-2.2202e-05,-3.58e-06,0.0,0 STARLINK-5926,1 55944U 23037AG  23317.10631443 -.00000358  00000-0 -22202-4 0  9990,2 55944  70.0001 261.3821 0002496 261.8760  98.2116 14.98321965 37365,6950.218,96.108,573.818,570.348,0.0
55944.0,STARLINK-5926,PAYLOAD,2023-11-13 04:09:13,14.98321192,0.0002538,70.0002,261.2135,266.6091,93.4778,-2.9596e-05,-4.46e-06,0.0,0 STARLINK-5926,1 55944U 23037AG  23317.17307567 -.00000446  00000-0 -29596-4 0  9995,2 55944  70.0002 261.2135 0002538 266.6091  93.4778 14.98321192 37037,6950.22,96.108,573.849,570.321,0.0
55944.0,STARLINK-5926,PAYLOAD,2023-11-13 13:46:01,14.98328649,0.0002574,70.0001,260.203,268.0337,92.0527,1.4364e-05,7.8e-07,0.0,0 STARLINK-5926,1 55944U 23037AG  23317.57363062  .00000078  00000-0  14364-4 0  9997,2 55944  70.0001 260.2030 0002574 268.0337  92.0527 14.98328649 37433,6950.197,96.107,573.851,570.273,0.0
55944.0,STARLINK-5926,PAYLOAD,2023-11-13 20:10:33,14.98329585,0.0002804,69.9995,259.5285,265.1807,94.9032,4.271e-05,4.17e-06,0.0,0 STARLINK-5926,1 55944U 23037AG  23317.84066833  .00000417  00000-0  42710-4 0  9996,2 55944  69.9995 259.5285 0002804 265.1807  94.9032 14.98329585 37130,6950.194,96.107,574.008,570.11,0.0
55944.0,STARLINK-5926,PAYLOAD,2023-11-14 04:11:13,14.98339074,0.0002556,69.9997,258.687,262.2045,97.8824,7.7982e-05,8.38e-06,0.0,0 STARLINK-5926,1 55944U 23037AG  23318.17446077  .00000838  00000-0  77982-4 0  9991,2 55944  69.9997 258.6870 0002556 262.2045  97.8824 14.98339074 37526,6950.165,96.106,573.806,570.253,0.0
